0 FENGYUN 1C DEB
1 30708U 99025ARS 13281.52090185 -.00000008  00000-0  21166-4 0  5230
2 30708 099.0154 279.7036 0009294 153.3995 330.2606 14.10195073341066
0 FENGYUN 1C DEB
1 30708U 99025ARS 13283.86116009  .00000138  00000-0  10330-3 0  5247
2 30708 099.0151 282.0493 0009380 147.2984 330.5893 14.10194864341397
0 FENGYUN 1C DEB
1 30708U 99025ARS 13284.98415876  .00000238  00000-0  15999-3 0  5253
2 30708 099.0150 283.1750 0009419 144.3866 271.4818 14.10194325341554
0 FENGYUN 1C DEB
1 30708U 99025ARS 13286.55932494  .00000345  00000-0  22004-3 0  5263
2 30708 099.0151 284.7536 0009444 140.4122 347.6850 14.10194470341771
0 FENGYUN 1C DEB
1 30708U 99025ARS 13287.95891951  .00000370  00000-0  23410-3 0  5271
2 30708 099.0151 286.1562 0009482 136.7977 252.6925 14.10196175341978
0 FENGYUN 1C DEB
1 30708U 99025ARS 13289.47319326  .00000170  00000-0  12116-3 0  5281
2 30708 099.0153 287.6737 0009528 132.9634 019.7924 14.10198571342186
0 FENGYUN 1C DEB
1 30708U 99025ARS 13291.46034038  .00000040  00000-0  47755-4 0  5292
2 30708 099.0156 289.6649 0009572 127.8899 027.4596 14.10200727342467
0 FENGYUN 1C DEB
1 30708U 99025ARS 13292.51849772  .00000065  00000-0  61991-4 0  5305
2 30708 099.0157 290.7253 0009588 125.2137 359.1338 14.10200908342613
0 FENGYUN 1C DEB
1 30708U 99025ARS 13293.99638223  .00000151  00000-0  11065-3 0  5318
2 30708 099.0158 292.2064 0009619 121.5533 301.4577 14.10200612342825
